CCSDS_OMM_VERS,COMMENT,CREATION_DATE,ORIGINATOR,OBJECT_NAME,OBJECT_ID,CENTER_NAME,REF_FRAME,TIME_SYSTEM,MEAN_ELEMENT_THEORY,EPOCH,MEAN_MOTION,ECCENTRICITY,INCLINATION,RA_OF_ASC_NODE,ARG_OF_PERICENTER,MEAN_ANOMALY,EPHEMERIS_TYPE,CLASSIFICATION_TYPE,NORAD_CAT_ID,ELEMENT_SET_NO,REV_AT_EPOCH,BSTAR,MEAN_MOTION_DOT,MEAN_MOTION_DDOT,SEMIMAJOR_AXIS,PERIOD,APOAPSIS,PERIAPSIS,OBJECT_TYPE,RCS_SIZE,COUNTRY_CODE,LAUNCH_DATE,SITE,DECAY_DATE,FILE,GP_ID,TLE_LINE0,TLE_LINE1,TLE_LINE2,,,,,,,AVG_ALTITUDE,,AVG_VELOCITY
2,GENERATED VIA SPACE-TRACK.ORG API,2022-06-03T06:26:12,18 SPCS,SPAWAR-CAL-OR,2018-099W,EARTH,TEME,UTC,SGP4,2022-06-03T03:24:31.278816,14.96418918,0.0012418,97.6102,219.4236,325.0741,34.9665,0,U,43778,999,19045,0.00013934,1.53E-05,0,6956.109,96.23,586.612,569.336,PAYLOAD,SMALL,US,12/3/2018,AFWTR,,3478036,205215534,0 SPAWAR-CAL-OR,1 43778U 18099W   22154.14202869  .00001525  00000-0  13934-3 0  9998,2 43778  97.6102 219.4236 0012418 325.0741  34.9665 14.96418918190454,,,,,,,586.109,,7.569823095
2,GENERATED VIA SPACE-TRACK.ORG API,2022-06-03T02:31:39,18 SPCS,OBJECT X,2018-099X,EARTH,TEME,UTC,SGP4,2022-06-02T14:59:54.790080,14.95810428,0.0013442,97.6206,220.3383,322.1816,37.846,0,U,43779,999,19077,4.37E-05,4.32E-06,0,6957.995,96.269,589.213,570.507,UNKNOWN,SMALL,TBD,12/3/2018,AFWTR,,3477983,205207161,0 OBJECT X,1 43779U 18099X   22153.62493970  .00000432  00000-0  43734-4 0  9994,2 43779  97.6206 220.3383 0013442 322.1816  37.8460 14.95810428190774,,,,,,,587.995,,7.568797106
2,GENERATED VIA SPACE-TRACK.ORG API,2022-06-03T02:31:39,18 SPCS,MOVE-II,2018-099Y,EARTH,TEME,UTC,SGP4,2022-06-02T22:01:49.405152,14.9761634,0.0011711,97.6237,221.7314,322.6432,37.3975,0,U,43780,999,19088,0.00023088,2.65E-05,0,6952.401,96.153,582.408,566.124,PAYLOAD,SMALL,GER,12/3/2018,AFWTR,,3477983,205207411,0 MOVE-II,1 43780U 18099Y   22153.91793293  .00002645  00000-0  23088-3 0  9996,2 43780  97.6237 221.7314 0011711 322.6432  37.3975 14.97616340190882,,,,,,,582.401,,7.571841474
2,GENERATED VIA SPACE-TRACK.ORG API,2022-06-03T02:31:39,18 SPCS,SNUSAT-2,2018-099AA,EARTH,TEME,UTC,SGP4,2022-06-02T15:51:08.534880,14.96547319,0.0010952,97.6207,220.852,315.3095,44.7243,0,U,43782,999,19082,0.00015857,1.75E-05,0,6955.711,96.221,585.194,569.958,PAYLOAD,SMALL,SKOR,12/3/2018,AFWTR,,3477983,205208412,0 SNUSAT-2,1 43782U 18099AA  22153.66051545  .00001748  00000-0  15857-3 0  9995,2 43782  97.6207 220.8520 0010952 315.3095  44.7243 14.96547319190822,,,,,,,585.711,,7.570039661
2,GENERATED VIA SPACE-TRACK.ORG API,2022-06-03T06:36:13,18 SPCS,KAZSTSAT,2018-099AB,EARTH,TEME,UTC,SGP4,2022-06-03T04:04:27.387552,14.93948003,0.0006929,97.6304,219.927,326.352,33.7259,0,U,43783,999,19067,2.51E-05,2.12E-06,0,6963.777,96.389,590.467,580.817,PAYLOAD,MEDIUM,KAZ,12/3/2018,AFWTR,,3478160,205218468,0 KAZSTSAT,1 43783U 18099AB  22154.16976143  .00000212  00000-0  25125-4 0  9997,2 43783  97.6304 219.9270 0006929 326.3520  33.7259 14.93948003190676,,,,,,,593.777,,7.56565428
2,GENERATED VIA SPACE-TRACK.ORG API,2022-06-03T02:31:39,18 SPCS,SNUGLITE,2018-099AC,EARTH,TEME,UTC,SGP4,2022-06-02T21:37:02.987328,14.96754837,0.0013802,97.6169,220.731,321.3229,38.7004,0,U,43784,999,19088,9.72E-05,1.06E-05,0,6955.068,96.208,586.533,567.334,PAYLOAD,SMALL,SKOR,12/3/2018,AFWTR,,3477983,205206911,0 SNUGLITE,1 43784U 18099AC  22153.90072902  .00001056  00000-0  97231-4 0  9993,2 43784  97.6169 220.7310 0013802 321.3229  38.7004 14.96754837190889,,,,,,,585.068,,7.57038958
2,GENERATED VIA SPACE-TRACK.ORG API,2022-06-03T02:31:39,18 SPCS,ORBWEAVER 2,2018-099AD,EARTH,TEME,UTC,SGP4,2022-06-02T21:52:58.419264,14.98847525,0.0011772,97.6239,222.0854,302.1187,57.8893,0,U,43785,999,19051,0.00028506,3.39E-05,0,6948.593,96.074,578.638,562.278,PAYLOAD,MEDIUM,US,12/3/2018,AFWTR,,3477983,205207663,0 ORBWEAVER 2,1 43785U 18099AD  22153.91178726  .00003386  00000-0  28506-3 0  9992,2 43785  97.6239 222.0854 0011772 302.1187  57.8893 14.98847525190517,,,,,,,578.593,,7.573915968
2,GENERATED VIA SPACE-TRACK.ORG API,2022-06-03T02:31:39,18 SPCS,OBJECT AE,2018-099AE,EARTH,TEME,UTC,SGP4,2022-06-02T16:09:42.859008,14.96533919,0.0013557,97.6242,221.3173,323.2227,36.8063,0,U,43786,999,19084,0.00017129,1.89E-05,0,6955.753,96.222,587.048,568.188,UNKNOWN,MEDIUM,TBD,12/3/2018,AFWTR,,3477983,205207912,0 OBJECT AE,1 43786U 18099AE  22153.67341272  .00001893  00000-0  17129-3 0  9994,2 43786  97.6242 221.3173 0013557 323.2227  36.8063 14.96533919190849,,,,,,,585.753,,7.570016807
2,GENERATED VIA SPACE-TRACK.ORG API,2022-06-03T06:46:12,18 SPCS,KAZSCISAT-1,2018-099AF,EARTH,TEME,UTC,SGP4,2022-06-03T04:02:49.906752,14.97661624,0.0012694,97.6148,220.9822,314.4284,45.5899,0,U,43787,999,19096,0.00014821,1.68E-05,0,6952.261,96.15,582.951,565.3,PAYLOAD,SMALL,KAZ,12/3/2018,AFWTR,,3478201,205219860,0 KAZSCISAT-1,1 43787U 18099AF  22154.16863318  .00001679  00000-0  14821-3 0  9998,2 43787  97.6148 220.9822 0012694 314.4284  45.5899 14.97661624190960,,,,,,,582.261,,7.571917712
2,GENERATED VIA SPACE-TRACK.ORG API,2022-06-03T07:16:12,18 SPCS,EAGLET 1,2018-099AJ,EARTH,TEME,UTC,SGP4,2022-06-03T04:07:49.028736,14.96718245,0.0012258,97.6229,222.3334,324.5748,35.4658,0,U,43790,999,19065,6.12E-05,6.43E-06,0,6955.182,96.21,585.572,568.521,PAYLOAD,SMALL,IT,12/3/2018,AFWTR,,3478481,205226701,0 EAGLET 1,1 43790U 18099AJ  22154.17209524  .00000643  00000-0  61209-4 0  9999,2 43790  97.6229 222.3334 0012258 324.5748  35.4658 14.96718245190659,,,,,,,585.182,,7.570327538
2,GENERATED VIA SPACE-TRACK.ORG API,2022-06-02T17:55:29,18 SPCS,CAPELLA-1,2018-099AK,EARTH,TEME,UTC,SGP4,2022-06-02T11:01:06.804192,15.12382445,0.0007214,97.6719,232.3764,315.4305,44.6344,0,U,43791,999,19127,0.0011623,0.00020155,0,6907.074,95.214,533.921,523.956,PAYLOAD,LARGE,US,12/3/2018,AFWTR,,3477482,205171831,0 CAPELLA-1,1 43791U 18099AK  22153.45910653  .00020155  00000-0  11623-2 0  9995,2 43791  97.6719 232.3764 0007214 315.4305  44.6344 15.12382445191277,,,,,,,537.074,,7.596645583
2,GENERATED VIA SPACE-TRACK.ORG API,2022-06-03T06:56:14,18 SPCS,ESEO,2018-099AL,EARTH,TEME,UTC,SGP4,2022-06-03T04:02:16.604736,14.96169295,0.0012257,97.6185,221.5689,322.4249,37.6115,0,U,43792,999,19069,1.50E-05,1.12E-06,0,6956.883,96.246,587.275,570.221,PAYLOAD,MEDIUM,ESA,12/3/2018,AFWTR,,3478306,205222279,0 ESEO,1 43792U 18099AL  22154.16824774  .00000112  00000-0  14954-4 0  9996,2 43792  97.6185 221.5689 0012257 322.4249  37.6115 14.96169295190699,,,,,,,586.883,,7.569401986
2,GENERATED VIA SPACE-TRACK.ORG API,2022-06-03T02:31:39,18 SPCS,CSIM,2018-099AM,EARTH,TEME,UTC,SGP4,2022-06-02T15:08:23.560800,14.98304688,0.0011357,97.6256,222.3245,318.0779,41.9574,0,U,43793,999,19066,0.0001556,1.80E-05,0,6950.271,96.109,580.03,564.243,PAYLOAD,MEDIUM,US,12/3/2018,AFWTR,,3477983,205207664,0 CSIM,1 43793U 18099AM  22153.63082825  .00001796  00000-0  15560-3 0  9993,2 43793  97.6256 222.3245 0011357 318.0779  41.9574 14.98304688190668,,,,,,,580.271,,7.573001629
2,GENERATED VIA SPACE-TRACK.ORG API,2022-06-03T02:31:39,18 SPCS,HAWK-B,2018-099AN,EARTH,TEME,UTC,SGP4,2022-06-02T21:43:11.276832,14.97025186,0.0013968,97.6194,222.2746,324.7219,35.3078,0,U,43794,999,19095,5.76E-05,6.07E-06,0,6954.231,96.191,585.81,566.382,PAYLOAD,MEDIUM,US,12/3/2018,AFWTR,,3477983,205207913,0 HAWK-B,1 43794U 18099AN  22153.90499163  .00000607  00000-0  57630-4 0  9996,2 43794  97.6194 222.2746 0013968 324.7219  35.3078 14.97025186190958,,,,,,,584.231,,7.570845147
2,GENERATED VIA SPACE-TRACK.ORG API,2022-06-03T02:31:39,18 SPCS,ORBWEAVER 1,2018-099AP,EARTH,TEME,UTC,SGP4,2022-06-02T22:12:57.576096,14.99555425,0.0010544,97.6251,223.5954,309.9836,50.046,0,U,43795,999,19101,0.00029219,3.54E-05,0,6946.406,96.028,575.595,560.947,PAYLOAD,MEDIUM,US,12/3/2018,AFWTR,,3477983,205207163,0 ORBWEAVER 1,1 43795U 18099AP  22153.92566639  .00003537  00000-0  29219-3 0  9998,2 43795  97.6251 223.5954 0010544 309.9836  50.0460 14.99555425191018,,,,,,,576.406,,7.575108156
2,GENERATED VIA SPACE-TRACK.ORG API,2022-06-03T06:46:12,18 SPCS,THEA,2018-099AQ,EARTH,TEME,UTC,SGP4,2022-06-03T03:51:59.697504,14.97485067,0.0013221,97.6246,222.8613,301.8993,58.0942,0,U,43796,999,19098,8.13E-05,8.91E-06,0,6952.807,96.161,583.864,565.48,PAYLOAD,MEDIUM,US,12/3/2018,AFWTR,,3478203,205219404,0 THEA,1 43796U 18099AQ  22154.16110761  .00000891  00000-0  81287-4 0  9991,2 43796  97.6246 222.8613 0013221 301.8993  58.0942 14.97485067190987,,,,,,,582.807,,7.571620397
2,GENERATED VIA SPACE-TRACK.ORG API,2022-06-02T17:55:29,18 SPCS,SKYSAT C12,2018-099AR,EARTH,TEME,UTC,SGP4,2022-06-02T10:21:02.264544,15.374419,0.0003163,97.1277,220.7301,116.5722,243.5847,0,U,43797,999,19517,0.00014473,5.24E-05,0,6831.814,93.662,455.84,451.518,PAYLOAD,MEDIUM,US,12/3/2018,AFWTR,,3477482,205172833,0 SKYSAT C12,1 43797U 18099AR  22153.43127621  .00005235  00000-0  14473-3 0  9993,2 43797  97.1277 220.7301 0003163 116.5722 243.5847 15.37441900195177,,,,,,,461.814,,7.638373711
2,GENERATED VIA SPACE-TRACK.ORG API,2022-06-03T02:31:39,18 SPCS,ASTROCAST-01,2018-099AS,EARTH,TEME,UTC,SGP4,2022-06-02T21:36:43.966368,14.97540919,0.0010865,97.624,222.5056,300.6897,59.3254,0,U,43798,999,19093,0.00012974,1.46E-05,0,6952.634,96.158,582.053,566.945,PAYLOAD,MEDIUM,SWTZ,12/3/2018,AFWTR,,3477983,205208414,0 ASTROCAST-01,1 43798U 18099AS  22153.90050887  .00001458  00000-0  12974-3 0  9992,2 43798  97.6240 222.5056 0010865 300.6897  59.3254 14.97540919190935,,,,,,,582.634,,7.571714597
2,GENERATED VIA SPACE-TRACK.ORG API,2022-06-03T06:46:12,18 SPCS,HAWK-C,2018-099AT,EARTH,TEME,UTC,SGP4,2022-06-03T04:07:53.566464,14.9702732,0.001383,97.6192,222.4449,323.5906,36.4374,0,U,43799,999,19099,5.75E-05,6.05E-06,0,6954.224,96.191,585.707,566.472,PAYLOAD,MEDIUM,US,12/3/2018,AFWTR,,3478202,205219372,0 HAWK-C,1 43799U 18099AT  22154.17214776  .00000605  00000-0  57478-4 0  9994,2 43799  97.6192 222.4449 0013830 323.5906  36.4374 14.97027320190998,,,,,,,584.224,,7.570848957
